     2.10           N: GPS NAV DATA                         RINEX VERSION / TYPE
JPS2RIN v.2.0.191   gpsops              20200513 013528 UTC PGM / RUN BY / DATE
    18                                                      LEAP SECONDS
BSHM                                    MARKER NAME         COMMENT
20705M001                               MARKER NUMBER       COMMENT
4395951.1833 3080707.2289 3433498.2609                      COMMENT
This data is provided as a public service by NASA/JPL.      COMMENT
No warranty is expressed or implied regarding suitability   COMMENT
for use.  For further information, contact:                 COMMENT
Dave Stowers, NASA/JPL m/s 238-600                          COMMENT
4800 Oak Grove Drive, Pasadena CA 91109 USA                 COMMENT
                                                            END OF HEADER
 6 20  5 12  1 59 44.0-2.698623575270D-04-6.934897101019D-12 0.000000000000D+00
    2.900000000000D+01-1.014062500000D+02 4.190174537588D-09-1.835415243909D+00
   -5.161389708519D-06 1.939638750628D-03 5.580484867096D-06 5.153541845322D+03
    1.799840000000D+05-4.656612873077D-08-2.966160905833D+00 8.381903171539D-08
    9.798670791684D-01 2.847500000000D+02-1.065250057335D+00-7.959974422028D-09
   -3.535861568541D-11 1.000000000000D+00 2.105000000000D+03 0.000000000000D+00
    2.000000000000D+00 0.000000000000D+00 4.190952000000D-09 2.900000000000D+01
    1.775400000000D+05 4.000000000000D+00
22 20  5 12  1 59 44.0-7.825870998204D-04 1.136868377216D-12 0.000000000000D+00
    1.100000000000D+01-5.246875000000D+01 5.212002815123D-09-7.066568113669D-01
   -2.695247530937D-06 7.213318138383D-03 1.004524528980D-05 5.153509712219D+03
    1.799840000000D+05-1.005828380585D-07-2.003481522441D+00-5.215406417847D-08
    9.303327095773D-01 1.687187500000D+02-1.169882976173D+00-8.381420548380D-09
    3.764442518427D-10 1.000000000000D+00 2.105000000000D+03 0.000000000000D+00
    2.000000000000D+00 0.000000000000D+00-1.816079000000D-08 1.100000000000D+01
    1.728600000000D+05 4.000000000000D+00
23 20  5 12  1 59 44.0-1.149363815784D-04 3.069544618484D-12 0.000000000000D+00
    3.000000000000D+00 2.500000000000D+00 5.108069914472D-09-1.781712494060D+00
    9.126961231232D-08 1.421072776429D-02 6.217509508133D-06 5.155142808914D+03
    1.799840000000D+05 2.440065145493D-07-8.945666022668D-01-6.519258022308D-08
    9.433229013224D-01 2.447812500000D+02-2.192453544010D+00-8.002833350132D-09
    1.646497154644D-10 1.000000000000D+00 2.105000000000D+03 0.000000000000D+00
    2.000000000000D+00 6.300000000000D+01-2.048910000000D-08 3.000000000000D+00
    1.799700000000D+05 4.000000000000D+00
 2 20  5 12  2  0  0.0-4.543885588646D-04-6.252776074689D-12 0.000000000000D+00
    4.800000000000D+01-8.925000000000D+01 4.619478134092D-09-1.726659723908D+00
   -4.176050424576D-06 1.971361599863D-02 4.762783646584D-06 5.153696706772D+03
    1.800000000000D+05 2.756714820862D-07-3.033860377491D+00 4.414469003677D-07
    9.592954095672D-01 2.831562500000D+02-1.631415030642D+00-8.049978171046D-09
   -3.214419607765D-12 1.000000000000D+00 2.105000000000D+03 0.000000000000D+00
    2.000000000000D+00 0.000000000000D+00-1.769513000000D-08 4.800000000000D+01
    1.728600000000D+05 4.000000000000D+00
 3 20  5 12  2  0  0.0-1.728590577841D-04-1.205080479849D-11 0.000000000000D+00
    3.300000000000D+01-5.100000000000D+01 4.355181410787D-09-3.006598659165D+00
   -2.691522240639D-06 2.788875717670D-03 1.009181141853D-05 5.153562301636D+03
    1.800000000000D+05-5.960464477539D-08-1.917580497188D+00-8.381903171539D-08
    9.652974084202D-01 1.837812500000D+02 6.946005567641D-01-7.779966923993D-09
    3.321566928024D-10 1.000000000000D+00 2.105000000000D+03 0.000000000000D+00
    2.000000000000D+00 0.000000000000D+00 1.862645000000D-09 3.300000000000D+01
    1.728600000000D+05 4.000000000000D+00
 4 20  5 12  2  0  0.0-8.813617751002D-05-5.002220859751D-12 0.000000000000D+00
    2.700000000000D+01 1.031250000000D+00 4.778770483544D-09-8.516187024116D-01
   -1.247972249985D-07 7.298833224922D-04 6.819143891335D-06 5.153678134918D+03
    1.800000000000D+05 3.725290298462D-08-8.383656155101D-01 2.235174179077D-08
    9.598258285527D-01 2.477187500000D+02-2.611546835077D+00-8.002476192397D-09
   -4.178745490094D-11 1.000000000000D+00 2.105000000000D+03 0.000000000000D+00
    2.000000000000D+00 0.000000000000D+00-4.190952000000D-09 7.950000000000D+02
    1.728600000000D+05 4.000000000000D+00
 5 20  5 12  2  0  0.0-1.249834895134D-05-6.821210263297D-13 0.000000000000D+00
    2.800000000000D+01-5.200000000000D+01 4.823058042584D-09 9.558709772801D-01
   -2.412125468254D-06 5.837600911036D-03 9.208917617798D-06 5.153657192230D+03
    1.800000000000D+05 2.421438694000D-08-1.949267073106D+00 1.061707735062D-07
    9.522169122051D-01 1.993437500000D+02 7.894366848066D-01-8.117123825074D-09
    2.332240004300D-10 1.000000000000D+00 2.105000000000D+03 0.000000000000D+00
    2.000000000000D+00 0.000000000000D+00-1.117587000000D-08 2.800000000000D+01
    1.768800000000D+05 4.000000000000D+00
 6 20  5 12  2  0  0.0-2.698628231883D-04-6.934897101019D-12 0.000000000000D+00
    7.900000000000D+01-1.014062500000D+02 4.190174537588D-09-1.833084559398D+00
   -5.161389708519D-06 1.939642825164D-03 5.580484867096D-06 5.153541839600D+03
    1.800000000000D+05-4.656612873077D-08-2.966161033107D+00 8.381903171539D-08
    9.798670572246D-01 2.847500000000D+02-1.065246770158D+00-7.959974422028D-09
   -3.571577341961D-11 1.000000000000D+00 2.105000000000D+03 0.000000000000D+00
    2.000000000000D+00 0.000000000000D+00 4.190952000000D-09 7.900000000000D+01
    1.728600000000D+05 4.000000000000D+00
 7 20  5 12  2  0  0.0-2.790456637740D-04-8.640199666843D-12 0.000000000000D+00
    5.100000000000D+01 2.187500000000D+01 4.514116602504D-09-2.729230292494D+00
    9.648501873016D-07 1.376934559084D-02 8.832663297653D-06 5.153667245865D+03
    1.800000000000D+05 6.891787052155D-08 1.877288849873D-01-1.844018697739D-07
    9.536698590347D-01 2.040625000000D+02-2.399710865384D+00-7.711749796762D-09
   -3.878732993369D-10 1.000000000000D+00 2.105000000000D+03 0.000000000000D+00
    2.000000000000D+00 0.000000000000D+00-1.117587000000D-08 5.100000000000D+01
    1.728600000000D+05 4.000000000000D+00
 8 20  5 12  2  0  0.0-3.366312012076D-05-1.250555214938D-12 0.000000000000D+00
    3.000000000000D+01 2.912500000000D+01 4.441970740197D-09 3.024442235245D-01
    1.620501279831D-06 5.349503830075D-03 2.138316631317D-06 5.153665428162D+03
    1.800000000000D+05 1.415610313416D-07 2.255792342143D+00-8.195638656616D-08
    9.696435741869D-01 3.424375000000D+02-8.147882870884D-02-8.337847304808D-09
    1.782217093638D-10 1.000000000000D+00 2.105000000000D+03 0.000000000000D+00
    2.000000000000D+00 0.000000000000D+00 5.122274000000D-09 3.000000000000D+01
    1.777800000000D+05 4.000000000000D+00
 9 20  5 12  2  0  0.0-2.155322581530D-04-7.389644451905D-12 0.000000000000D+00
    6.200000000000D+01 8.125000000000D-01 4.959135139313D-09 5.047921264125D-01
   -3.352761268616D-08 1.538296579383D-03 6.772577762604D-06 5.153727884293D+03
    1.800000000000D+05-1.490116119385D-08-8.861612367439D-01-3.725290298462D-09
    9.525099654176D-01 2.445000000000D+02 1.812512537234D+00-8.114980878669D-09
    4.214461263514D-11 1.000000000000D+00 2.105000000000D+03 0.000000000000D+00
    2.000000000000D+00 0.000000000000D+00 1.396984000000D-09 6.200000000000D+01
    1.728600000000D+05 4.000000000000D+00
16 20  5 12  2  0  0.0-1.571094617248D-04-4.547473508865D-12 0.000000000000D+00
    8.500000000000D+01 9.734375000000D+01 3.879447308838D-09 1.028022398311D+00
    5.176290869713D-06 1.151184143964D-02 7.381662726402D-06 5.153762023926D+03
    1.800000000000D+05-1.527369022369D-07 1.312439331040D+00 7.450580596924D-08
    9.785776763396D-01 2.480312500000D+02 6.302908111251D-01-7.849612682162D-09
   -9.250385315679D-11 1.000000000000D+00 2.105000000000D+03 0.000000000000D+00
    2.000000000000D+00 0.000000000000D+00-1.071021000000D-08 8.500000000000D+01
    1.728600000000D+05 4.000000000000D+00
26 20  5 12  2  0  0.0 2.046953886747D-04 7.162270776462D-12 0.000000000000D+00
    2.800000000000D+01 9.271875000000D+01 4.571618997710D-09 1.991175269768D+00
    4.800036549568D-06 4.742447170429D-03 7.754191756248D-06 5.153619068146D+03
    1.800000000000D+05-2.235174179077D-08 1.189771879963D+00 2.607703208923D-08
    9.468375620078D-01 2.232812500000D+02 2.277569378707D-01-8.080693736186D-09
   -7.536028191537D-11 1.000000000000D+00 2.105000000000D+03 0.000000000000D+00
    2.000000000000D+00 0.000000000000D+00 6.984919000000D-09 2.800000000000D+01
    1.728600000000D+05 4.000000000000D+00
27 20  5 12  2  0  0.0-2.912594936788D-04-1.023181539495D-11 0.000000000000D+00
    8.900000000000D+01 2.265625000000D+01 4.313751113620D-09 1.437900453868D-01
    1.290813088417D-06 8.275741478428D-03 2.468004822731D-06 5.153662445068D+03
    1.800000000000D+05 1.266598701477D-07 2.269960273643D+00 1.080334186554D-07
    9.780699238068D-01 3.434062500000D+02 5.566692627549D-01-8.267130073437D-09
    1.417916204758D-10 1.000000000000D+00 2.105000000000D+03 0.000000000000D+00
    2.000000000000D+00 0.000000000000D+00 1.862645000000D-09 8.900000000000D+01
    1.784400000000D+05 4.000000000000D+00
